[{"OBJECT_NAME":"STARLINK-31945","OBJECT_ID":"2024-098N","EPOCH":"2026-03-30T05:23:28.214304","MEAN_MOTION":15.27572762,"ECCENTRICITY":0.000213,"INCLINATION":43.0043,"RA_OF_ASC_NODE":157.9657,"ARG_OF_PERICENTER":289.3566,"MEAN_ANOMALY":70.7055,"EPHEMERIS_TYPE":0,"CLASSIFICATION_TYPE":"U","NORAD_CAT_ID":59870,"ELEMENT_SET_NO":999,"REV_AT_EPOCH":10503,"BSTAR":-2.7601e-5,"MEAN_MOTION_DOT":-1.022e-5,"MEAN_MOTION_DDOT":0},{"OBJECT_NAME":"STARLINK-31937","OBJECT_ID":"2024-098P","EPOCH":"2026-03-28T21:27:55.401408","MEAN_MOTION":15.2758046,"ECCENTRICITY":0.0001011,"INCLINATION":42.9989,"RA_OF_ASC_NODE":162.5825,"ARG_OF_PERICENTER":274.5402,"MEAN_ANOMALY":85.5334,"EPHEMERIS_TYPE":0,"CLASSIFICATION_TYPE":"U","NORAD_CAT_ID":59871,"ELEMENT_SET_NO":999,"REV_AT_EPOCH":10486,"BSTAR":-8.3363e-5,"MEAN_MOTION_DOT":-2.555e-5,"MEAN_MOTION_DDOT":0},{"OBJECT_NAME":"STARLINK-31940","OBJECT_ID":"2024-098R","EPOCH":"2026-03-30T05:13:03.044640","MEAN_MOTION":15.2756276,"ECCENTRICITY":0.000134,"INCLINATION":43.0016,"RA_OF_ASC_NODE":154.451,"ARG_OF_PERICENTER":271.7642,"MEAN_ANOMALY":88.3057,"EPHEMERIS_TYPE":0,"CLASSIFICATION_TYPE":"U","NORAD_CAT_ID":59873,"ELEMENT_SET_NO":999,"REV_AT_EPOCH":10507,"BSTAR":4.8434e-5,"MEAN_MOTION_DOT":1.07e-5,"MEAN_MOTION_DDOT":0},{"OBJECT_NAME":"STARLINK-31933","OBJECT_ID":"2024-098S","EPOCH":"2026-03-30T04:47:48.613344","MEAN_MOTION":15.27591176,"ECCENTRICITY":0.0001499,"INCLINATION":43.0018,"RA_OF_ASC_NODE":162.1017,"ARG_OF_PERICENTER":206.0343,"MEAN_ANOMALY":154.0434,"EPHEMERIS_TYPE":0,"CLASSIFICATION_TYPE":"U","NORAD_CAT_ID":59874,"ELEMENT_SET_NO":999,"REV_AT_EPOCH":10498,"BSTAR":-7.3933e-5,"MEAN_MOTION_DOT":-2.297e-5,"MEAN_MOTION_DDOT":0},{"OBJECT_NAME":"STARLINK-31936","OBJECT_ID":"2024-098T","EPOCH":"2026-03-30T03:14:05.290080","MEAN_MOTION":15.27594132,"ECCENTRICITY":9.83e-5,"INCLINATION":43.0067,"RA_OF_ASC_NODE":130.2005,"ARG_OF_PERICENTER":252.1657,"MEAN_ANOMALY":107.9088,"EPHEMERIS_TYPE":0,"CLASSIFICATION_TYPE":"U","NORAD_CAT_ID":59875,"ELEMENT_SET_NO":999,"REV_AT_EPOCH":10533,"BSTAR":-0.0001898,"MEAN_MOTION_DOT":-5.483e-5,"MEAN_MOTION_DDOT":0},{"OBJECT_NAME":"STARLINK-31935","OBJECT_ID":"2024-098U","EPOCH":"2026-03-30T05:19:15.828672","MEAN_MOTION":15.27577742,"ECCENTRICITY":9.53e-5,"INCLINATION":42.9978,"RA_OF_ASC_NODE":162.2632,"ARG_OF_PERICENTER":278.0903,"MEAN_ANOMALY":81.984,"EPHEMERIS_TYPE":0,"CLASSIFICATION_TYPE":"U","NORAD_CAT_ID":59876,"ELEMENT_SET_NO":999,"REV_AT_EPOCH":10498,"BSTAR":6.8437e-5,"MEAN_MOTION_DOT":1.622e-5,"MEAN_MOTION_DDOT":0},{"OBJECT_NAME":"STARLINK-31934","OBJECT_ID":"2024-098V","EPOCH":"2026-03-30T04:26:17.837952","MEAN_MOTION":15.2757591,"ECCENTRICITY":0.0001024,"INCLINATION":42.9999,"RA_OF_ASC_NODE":158.525,"ARG_OF_PERICENTER":231.8283,"MEAN_ANOMALY":128.2476,"EPHEMERIS_TYPE":0,"CLASSIFICATION_TYPE":"U","NORAD_CAT_ID":59877,"ELEMENT_SET_NO":999,"REV_AT_EPOCH":10502,"BSTAR":4.9962e-5,"MEAN_MOTION_DOT":1.113e-5,"MEAN_MOTION_DDOT":0},{"OBJECT_NAME":"STARLINK-31943","OBJECT_ID":"2024-098W","EPOCH":"2026-03-30T05:09:07.006752","MEAN_MOTION":15.31828617,"ECCENTRICITY":0.000486,"INCLINATION":43.0001,"RA_OF_ASC_NODE":165.6729,"ARG_OF_PERICENTER":40.6004,"MEAN_ANOMALY":319.5211,"EPHEMERIS_TYPE":0,"CLASSIFICATION_TYPE":"U","NORAD_CAT_ID":59878,"ELEMENT_SET_NO":999,"REV_AT_EPOCH":10429,"BSTAR":0.0036958,"MEAN_MOTION_DOT":0.00117572,"MEAN_MOTION_DDOT":0},{"OBJECT_NAME":"STARLINK-31926","OBJECT_ID":"2024-098X","EPOCH":"2026-03-29T21:36:00.870048","MEAN_MOTION":15.27585247,"ECCENTRICITY":0.00012,"INCLINATION":43.0016,"RA_OF_ASC_NODE":153.3565,"ARG_OF_PERICENTER":272.3455,"MEAN_ANOMALY":87.7259,"EPHEMERIS_TYPE":0,"CLASSIFICATION_TYPE":"U","NORAD_CAT_ID":59879,"ELEMENT_SET_NO":999,"REV_AT_EPOCH":10505,"BSTAR":0.00010455,"MEAN_MOTION_DOT":2.616e-5,"MEAN_MOTION_DDOT":0},{"OBJECT_NAME":"STARLINK-31919","OBJECT_ID":"2024-098Y","EPOCH":"2026-03-30T04:58:54.806592","MEAN_MOTION":15.27571517,"ECCENTRICITY":0.0001367,"INCLINATION":42.9994,"RA_OF_ASC_NODE":162.1559,"ARG_OF_PERICENTER":251.142,"MEAN_ANOMALY":108.9283,"EPHEMERIS_TYPE":0,"CLASSIFICATION_TYPE":"U","NORAD_CAT_ID":59880,"ELEMENT_SET_NO":999,"REV_AT_EPOCH":10498,"BSTAR":7.4637e-5,"MEAN_MOTION_DOT":1.792e-5,"MEAN_MOTION_DDOT":0},{"OBJECT_NAME":"STARLINK-31974","OBJECT_ID":"2024-100A","EPOCH":"2026-03-30T04:47:33.387936","MEAN_MOTION":15.27579611,"ECCENTRICITY":0.00011,"INCLINATION":43.0029,"RA_OF_ASC_NODE":9.5691,"ARG_OF_PERICENTER":278.9289,"MEAN_ANOMALY":81.1438,"EPHEMERIS_TYPE":0,"CLASSIFICATION_TYPE":"U","NORAD_CAT_ID":59885,"ELEMENT_SET_NO":999,"REV_AT_EPOCH":10419,"BSTAR":7.6811e-5,"MEAN_MOTION_DOT":1.852e-5,"MEAN_MOTION_DDOT":0},{"OBJECT_NAME":"STARLINK-31975","OBJECT_ID":"2024-100B","EPOCH":"2026-03-30T04:51:15.791040","MEAN_MOTION":15.2758596,"ECCENTRICITY":0.0001057,"INCLINATION":43.005,"RA_OF_ASC_NODE":9.5852,"ARG_OF_PERICENTER":278.5169,"MEAN_ANOMALY":81.5562,"EPHEMERIS_TYPE":0,"CLASSIFICATION_TYPE":"U","NORAD_CAT_ID":59886,"ELEMENT_SET_NO":999,"REV_AT_EPOCH":10429,"BSTAR":0.00014164,"MEAN_MOTION_DOT":3.638e-5,"MEAN_MOTION_DDOT":0},{"OBJECT_NAME":"STARLINK-31976","OBJECT_ID":"2024-100C","EPOCH":"2026-03-29T23:25:44.844672","MEAN_MOTION":15.27581135,"ECCENTRICITY":0.0001358,"INCLINATION":43.0057,"RA_OF_ASC_NODE":14.7646,"ARG_OF_PERICENTER":270.6035,"MEAN_ANOMALY":89.4661,"EPHEMERIS_TYPE":0,"CLASSIFICATION_TYPE":"U","NORAD_CAT_ID":59887,"ELEMENT_SET_NO":999,"REV_AT_EPOCH":10421,"BSTAR":5.142e-5,"MEAN_MOTION_DOT":1.153e-5,"MEAN_MOTION_DDOT":0},{"OBJECT_NAME":"STARLINK-31965","OBJECT_ID":"2024-100D","EPOCH":"2026-03-30T03:33:45.508896","MEAN_MOTION":15.27602835,"ECCENTRICITY":0.0001541,"INCLINATION":43.0041,"RA_OF_ASC_NODE":10.0424,"ARG_OF_PERICENTER":258.3079,"MEAN_ANOMALY":101.76,"EPHEMERIS_TYPE":0,"CLASSIFICATION_TYPE":"U","NORAD_CAT_ID":59888,"ELEMENT_SET_NO":999,"REV_AT_EPOCH":10418,"BSTAR":0.00096297,"MEAN_MOTION_DOT":0.0002635,"MEAN_MOTION_DDOT":0},{"OBJECT_NAME":"STARLINK-31969","OBJECT_ID":"2024-100E","EPOCH":"2026-03-30T03:10:24.807648","MEAN_MOTION":15.27576421,"ECCENTRICITY":0.0001369,"INCLINATION":43.0086,"RA_OF_ASC_NODE":6.4658,"ARG_OF_PERICENTER":275.0162,"MEAN_ANOMALY":85.0533,"EPHEMERIS_TYPE":0,"CLASSIFICATION_TYPE":"U","NORAD_CAT_ID":59889,"ELEMENT_SET_NO":999,"REV_AT_EPOCH":10432,"BSTAR":-7.7223e-6,"MEAN_MOTION_DOT":-4.75e-6,"MEAN_MOTION_DDOT":0},{"OBJECT_NAME":"STARLINK-31951","OBJECT_ID":"2024-100F","EPOCH":"2026-03-30T02:51:12.679200","MEAN_MOTION":15.2757402,"ECCENTRICITY":0.0001037,"INCLINATION":43.0029,"RA_OF_ASC_NODE":9.8193,"ARG_OF_PERICENTER":263.8259,"MEAN_ANOMALY":96.2474,"EPHEMERIS_TYPE":0,"CLASSIFICATION_TYPE":"U","NORAD_CAT_ID":59890,"ELEMENT_SET_NO":999,"REV_AT_EPOCH":10418,"BSTAR":-7.7071e-5,"MEAN_MOTION_DOT":-2.382e-5,"MEAN_MOTION_DDOT":0},{"OBJECT_NAME":"STARLINK-31949","OBJECT_ID":"2024-100G","EPOCH":"2026-03-30T03:07:51.484800","MEAN_MOTION":15.27579983,"ECCENTRICITY":9.37e-5,"INCLINATION":43.004,"RA_OF_ASC_NODE":9.9006,"ARG_OF_PERICENTER":256.5913,"MEAN_ANOMALY":103.4834,"EPHEMERIS_TYPE":0,"CLASSIFICATION_TYPE":"U","NORAD_CAT_ID":59891,"ELEMENT_SET_NO":999,"REV_AT_EPOCH":10418,"BSTAR":3.1442e-6,"MEAN_MOTION_DOT":-1.75e-6,"MEAN_MOTION_DDOT":0}]
