STARLINK-31945          
1 59870U 24098N   26089.22463211 -.00001022  00000+0 -27601-4 0  9994
2 59870  43.0043 157.9657 0002130 289.3566  70.7055 15.27572762105037
STARLINK-31937          
1 59871U 24098P   26087.89439122 -.00002555  00000+0 -83363-4 0  9999
2 59871  42.9989 162.5825 0001011 274.5402  85.5334 15.27580460104864
STARLINK-31940          
1 59873U 24098R   26089.21739635  .00001070  00000+0  48434-4 0  9990
2 59873  43.0016 154.4510 0001340 271.7642  88.3057 15.27562760105070
STARLINK-31933          
1 59874U 24098S   26089.19986821 -.00002297  00000+0 -73933-4 0  9995
2 59874  43.0018 162.1017 0001499 206.0343 154.0434 15.27591176104987
STARLINK-31936          
1 59875U 24098T   26089.13478345 -.00005483  00000+0 -18980-3 0  9997
2 59875  43.0067 130.2005 0000983 252.1657 107.9088 15.27594132105339
STARLINK-31935          
1 59876U 24098U   26089.22171098  .00001622  00000+0  68437-4 0  9995
2 59876  42.9978 162.2632 0000953 278.0903  81.9840 15.27577742104983
STARLINK-31934          
1 59877U 24098V   26089.18492868  .00001113  00000+0  49962-4 0  9999
2 59877  42.9999 158.5250 0001024 231.8283 128.2476 15.27575910105020
STARLINK-31943          
1 59878U 24098W   26089.21466443  .00117572  00000+0  36958-2 0  9990
2 59878  43.0001 165.6729 0004860  40.6004 319.5211 15.31828617104295
STARLINK-31926          
1 59879U 24098X   26088.90001007  .00002616  00000+0  10455-3 0  9994
2 59879  43.0016 153.3565 0001200 272.3455  87.7259 15.27585247105058
STARLINK-31919          
1 59880U 24098Y   26089.20757878  .00001792  00000+0  74637-4 0  9991
2 59880  42.9994 162.1559 0001367 251.1420 108.9283 15.27571517104984
STARLINK-31974          
1 59885U 24100A   26089.19969199  .00001852  00000+0  76811-4 0  9992
2 59885  43.0029   9.5691 0001100 278.9289  81.1438 15.27579611104196
STARLINK-31975          
1 59886U 24100B   26089.20226610  .00003638  00000+0  14164-3 0  9995
2 59886  43.0050   9.5852 0001057 278.5169  81.5562 15.27585960104291
STARLINK-31976          
1 59887U 24100C   26088.97621348  .00001153  00000+0  51420-4 0  9993
2 59887  43.0057  14.7646 0001358 270.6035  89.4661 15.27581135104216
STARLINK-31965          
1 59888U 24100D   26089.14844339  .00026350  00000+0  96297-3 0  9997
2 59888  43.0041  10.0424 0001541 258.3079 101.7600 15.27602835104186
STARLINK-31969          
1 59889U 24100E   26089.13223157 -.00000475  00000+0 -77223-5 0  9998
2 59889  43.0086   6.4658 0001369 275.0162  85.0533 15.27576421104327
STARLINK-31951          
1 59890U 24100F   26089.11889675 -.00002382  00000+0 -77071-4 0  9990
2 59890  43.0029   9.8193 0001037 263.8259  96.2474 15.27574020104186
STARLINK-31949          
1 59891U 24100G   26089.13045700 -.00000175  00000+0  31442-5 0  9996
2 59891  43.0040   9.9006 0000937 256.5913 103.4834 15.27579983104182
